CCSDS_OMM_VERS = 2.0
CREATION_DATE  = 
ORIGINATOR     = 

OBJECT_NAME    = SL-16 R/B
OBJECT_ID      = 1998-045B
CENTER_NAME    = EARTH
REF_FRAME      = TEME
TIME_SYSTEM    = UTC
MEAN_ELEMENT_THEORY = SGP/SGP4

EPOCH          = 2026-03-21T13:56:19.214016
MEAN_MOTION    = 14.16195503
ECCENTRICITY   = .00075668
INCLINATION    = 71.0119
RA_OF_ASC_NODE = 156.5694
ARG_OF_PERICENTER = 349.1519
MEAN_ANOMALY   = 10.9440

EPHEMERIS_TYPE = 0
CLASSIFICATION_TYPE = U
NORAD_CAT_ID   = 25407
ELEMENT_SET_NO = 999
REV_AT_EPOCH   = 42878
BSTAR          = .16945732E-4
MEAN_MOTION_DOT = -.14E-6
MEAN_MOTION_DDOT = 0

CCSDS_OMM_VERS = 2.0
CREATION_DATE  = 
ORIGINATOR     = 

OBJECT_NAME    = ISS (ZARYA)
OBJECT_ID      = 1998-067A
CENTER_NAME    = EARTH
REF_FRAME      = TEME
TIME_SYSTEM    = UTC
MEAN_ELEMENT_THEORY = SGP/SGP4

EPOCH          = 2026-03-21T12:25:18.954336
MEAN_MOTION    = 15.48422342
ECCENTRICITY   = .000631
INCLINATION    = 51.6347
RA_OF_ASC_NODE = 13.8885
ARG_OF_PERICENTER = 215.8915
MEAN_ANOMALY   = 144.1650

EPHEMERIS_TYPE = 0
CLASSIFICATION_TYPE = U
NORAD_CAT_ID   = 25544
ELEMENT_SET_NO = 999
REV_AT_EPOCH   = 55816
BSTAR          = .26848155E-3
MEAN_MOTION_DOT = .1408E-3
MEAN_MOTION_DDOT = 0

CCSDS_OMM_VERS = 2.0
CREATION_DATE  = 
ORIGINATOR     = 

OBJECT_NAME    = CZ-4B R/B
OBJECT_ID      = 1999-025C
CENTER_NAME    = EARTH
REF_FRAME      = TEME
TIME_SYSTEM    = UTC
MEAN_ELEMENT_THEORY = SGP/SGP4

EPOCH          = 2026-03-21T14:22:02.882208
MEAN_MOTION    = 14.18267593
ECCENTRICITY   = .00362004
INCLINATION    = 98.6602
RA_OF_ASC_NODE = 124.5968
ARG_OF_PERICENTER = 311.7869
MEAN_ANOMALY   = 163.0669

EPHEMERIS_TYPE = 0
CLASSIFICATION_TYPE = U
NORAD_CAT_ID   = 25732
ELEMENT_SET_NO = 999
REV_AT_EPOCH   = 38985
BSTAR          = .43213526E-4
MEAN_MOTION_DOT = .46E-6
MEAN_MOTION_DDOT = 0

CCSDS_OMM_VERS = 2.0
CREATION_DATE  = 
ORIGINATOR     = 

OBJECT_NAME    = OKEAN-O
OBJECT_ID      = 1999-039A
CENTER_NAME    = EARTH
REF_FRAME      = TEME
TIME_SYSTEM    = UTC
MEAN_ELEMENT_THEORY = SGP/SGP4

EPOCH          = 2026-03-21T14:46:55.774848
MEAN_MOTION    = 14.80353841
ECCENTRICITY   = .00009472
INCLINATION    = 97.9417
RA_OF_ASC_NODE = 140.3848
ARG_OF_PERICENTER = 79.0690
MEAN_ANOMALY   = 281.0629

EPHEMERIS_TYPE = 0
CLASSIFICATION_TYPE = U
NORAD_CAT_ID   = 25860
ELEMENT_SET_NO = 999
REV_AT_EPOCH   = 43615
BSTAR          = .94644595E-4
MEAN_MOTION_DOT = .67E-5
MEAN_MOTION_DDOT = 0

CCSDS_OMM_VERS = 2.0
CREATION_DATE  = 
ORIGINATOR     = 

OBJECT_NAME    = SL-16 R/B
OBJECT_ID      = 1999-039B
CENTER_NAME    = EARTH
REF_FRAME      = TEME
TIME_SYSTEM    = UTC
MEAN_ELEMENT_THEORY = SGP/SGP4

EPOCH          = 2026-03-21T14:01:47.012160
MEAN_MOTION    = 14.81747186
ECCENTRICITY   = .00140117
INCLINATION    = 97.9941
RA_OF_ASC_NODE = 139.6621
ARG_OF_PERICENTER = 214.4112
MEAN_ANOMALY   = 145.6195

EPHEMERIS_TYPE = 0
CLASSIFICATION_TYPE = U
NORAD_CAT_ID   = 25861
ELEMENT_SET_NO = 999
REV_AT_EPOCH   = 43862
BSTAR          = .77386954E-4
MEAN_MOTION_DOT = .557E-5
MEAN_MOTION_DDOT = 0

CCSDS_OMM_VERS = 2.0
CREATION_DATE  = 
ORIGINATOR     = 

OBJECT_NAME    = DELTA 2 R/B
OBJECT_ID      = 1999-041E
CENTER_NAME    = EARTH
REF_FRAME      = TEME
TIME_SYSTEM    = UTC
MEAN_ELEMENT_THEORY = SGP/SGP4

EPOCH          = 2026-03-21T11:25:56.768736
MEAN_MOTION    = 14.11866346
ECCENTRICITY   = .05026096
INCLINATION    = 51.7604
RA_OF_ASC_NODE = 254.1972
ARG_OF_PERICENTER = 23.1979
MEAN_ANOMALY   = 339.0805

EPHEMERIS_TYPE = 0
CLASSIFICATION_TYPE = U
NORAD_CAT_ID   = 25876
ELEMENT_SET_NO = 999
REV_AT_EPOCH   = 36469
BSTAR          = .10604632E-3
MEAN_MOTION_DOT = .412E-5
MEAN_MOTION_DDOT = 0

CCSDS_OMM_VERS = 2.0
CREATION_DATE  = 
ORIGINATOR     = 

OBJECT_NAME    = HELIOS 1B
OBJECT_ID      = 1999-064A
CENTER_NAME    = EARTH
REF_FRAME      = TEME
TIME_SYSTEM    = UTC
MEAN_ELEMENT_THEORY = SGP/SGP4

EPOCH          = 2026-03-21T13:13:45.282720
MEAN_MOTION    = 14.87742957
ECCENTRICITY   = .00021422
INCLINATION    = 98.1682
RA_OF_ASC_NODE = 343.1425
ARG_OF_PERICENTER = 58.4287
MEAN_ANOMALY   = 301.7137

EPHEMERIS_TYPE = 0
CLASSIFICATION_TYPE = U
NORAD_CAT_ID   = 25977
ELEMENT_SET_NO = 999
REV_AT_EPOCH   = 68702
BSTAR          = .19259508E-3
MEAN_MOTION_DOT = .1698E-4
MEAN_MOTION_DDOT = 0

CCSDS_OMM_VERS = 2.0
CREATION_DATE  = 
ORIGINATOR     = 

OBJECT_NAME    = TERRA
OBJECT_ID      = 1999-068A
CENTER_NAME    = EARTH
REF_FRAME      = TEME
TIME_SYSTEM    = UTC
MEAN_ELEMENT_THEORY = SGP/SGP4

EPOCH          = 2026-03-21T13:58:14.196000
MEAN_MOTION    = 14.61026713
ECCENTRICITY   = .00033478
INCLINATION    = 97.9568
RA_OF_ASC_NODE = 133.5611
ARG_OF_PERICENTER = 126.0418
MEAN_ANOMALY   = 33.6676

EPHEMERIS_TYPE = 0
CLASSIFICATION_TYPE = U
NORAD_CAT_ID   = 25994
ELEMENT_SET_NO = 999
REV_AT_EPOCH   = 39681
BSTAR          = .94868494E-4
MEAN_MOTION_DOT = .421E-5
MEAN_MOTION_DDOT = 0

CCSDS_OMM_VERS = 2.0
CREATION_DATE  = 
ORIGINATOR     = 

OBJECT_NAME    = SL-16 R/B
OBJECT_ID      = 2000-006B
CENTER_NAME    = EARTH
REF_FRAME      = TEME
TIME_SYSTEM    = UTC
MEAN_ELEMENT_THEORY = SGP/SGP4

EPOCH          = 2026-03-21T09:17:46.620096
MEAN_MOTION    = 14.15823632
ECCENTRICITY   = .00161492
INCLINATION    = 71.0006
RA_OF_ASC_NODE = 73.2385
ARG_OF_PERICENTER = 171.8174
MEAN_ANOMALY   = 188.3216

EPHEMERIS_TYPE = 0
CLASSIFICATION_TYPE = U
NORAD_CAT_ID   = 26070
ELEMENT_SET_NO = 999
REV_AT_EPOCH   = 35021
BSTAR          = .15847971E-4
MEAN_MOTION_DOT = -.17E-6
MEAN_MOTION_DDOT = 0

CCSDS_OMM_VERS = 2.0
CREATION_DATE  = 
ORIGINATOR     = 

OBJECT_NAME    = TITAN 4B R/B
OBJECT_ID      = 2000-047B
CENTER_NAME    = EARTH
REF_FRAME      = TEME
TIME_SYSTEM    = UTC
MEAN_ELEMENT_THEORY = SGP/SGP4

EPOCH          = 2026-03-21T13:21:00.877824
MEAN_MOTION    = 15.09671421
ECCENTRICITY   = .00393137
INCLINATION    = 67.9918
RA_OF_ASC_NODE = 7.1400
ARG_OF_PERICENTER = 21.4115
MEAN_ANOMALY   = 338.8667

EPHEMERIS_TYPE = 0
CLASSIFICATION_TYPE = U
NORAD_CAT_ID   = 26474
ELEMENT_SET_NO = 999
REV_AT_EPOCH   = 39470
BSTAR          = .30935565E-3
MEAN_MOTION_DOT = .495E-4
MEAN_MOTION_DDOT = 0

CCSDS_OMM_VERS = 2.0
CREATION_DATE  = 
ORIGINATOR     = 

OBJECT_NAME    = ENVISAT
OBJECT_ID      = 2002-009A
CENTER_NAME    = EARTH
REF_FRAME      = TEME
TIME_SYSTEM    = UTC
MEAN_ELEMENT_THEORY = SGP/SGP4

EPOCH          = 2026-03-21T12:17:23.414784
MEAN_MOTION    = 14.39040994
ECCENTRICITY   = .00012765
INCLINATION    = 98.3748
RA_OF_ASC_NODE = 33.8292
ARG_OF_PERICENTER = 81.8145
MEAN_ANOMALY   = 32.3594

EPHEMERIS_TYPE = 0
CLASSIFICATION_TYPE = U
NORAD_CAT_ID   = 27386
ELEMENT_SET_NO = 999
REV_AT_EPOCH   = 26087
BSTAR          = .53321391E-4
MEAN_MOTION_DOT = .122E-5
MEAN_MOTION_DDOT = 0

CCSDS_OMM_VERS = 2.0
CREATION_DATE  = 
ORIGINATOR     = 

OBJECT_NAME    = IDEFIX & ARIANE 42P R/B
OBJECT_ID      = 2002-021B
CENTER_NAME    = EARTH
REF_FRAME      = TEME
TIME_SYSTEM    = UTC
MEAN_ELEMENT_THEORY = SGP/SGP4

EPOCH          = 2026-03-21T14:12:27.322560
MEAN_MOTION    = 14.31033848
ECCENTRICITY   = .00122663
INCLINATION    = 98.5883
RA_OF_ASC_NODE = 19.0569
ARG_OF_PERICENTER = 147.5610
MEAN_ANOMALY   = 212.6330

EPHEMERIS_TYPE = 0
CLASSIFICATION_TYPE = U
NORAD_CAT_ID   = 27422
ELEMENT_SET_NO = 999
REV_AT_EPOCH   = 24572
BSTAR          = .11615217E-3
MEAN_MOTION_DOT = .262E-5
MEAN_MOTION_DDOT = 0

