SL-16 R/B               
1 25407U 98045B   26080.58077794 -.00000014  00000+0  16946-4 0  9992
2 25407  71.0119 156.5694 0007566 349.1519  10.9440 14.16195503428783
ISS (ZARYA)             
1 25544U 98067A   26080.51758049  .00014080  00000+0  26848-3 0  9998
2 25544  51.6347  13.8885 0006310 215.8915 144.1650 15.48422342558163
CZ-4B R/B               
1 25732U 99025C   26080.59864447  .00000046  00000+0  43214-4 0  9994
2 25732  98.6602 124.5968 0036200 311.7869 163.0669 14.18267593389853
OKEAN-O                 
1 25860U 99039A   26080.61592332  .00000670  00000+0  94645-4 0  9992
2 25860  97.9417 140.3848 0000947  79.0690 281.0629 14.80353841436153
SL-16 R/B               
1 25861U 99039B   26080.58457190  .00000557  00000+0  77387-4 0  9999
2 25861  97.9941 139.6621 0014011 214.4112 145.6195 14.81747186438624
DELTA 2 R/B             
1 25876U 99041E   26080.47635149  .00000412  00000+0  10605-3 0  9997
2 25876  51.7604 254.1972 0502609  23.1979 339.0805 14.11866346364692
HELIOS 1B               
1 25977U 99064A   26080.55121855  .00001698  00000+0  19260-3 0  9990
2 25977  98.1682 343.1425 0002142  58.4287 301.7137 14.87742957687020
TERRA                   
1 25994U 99068A   26080.58210875  .00000421  00000+0  94868-4 0  9998
2 25994  97.9568 133.5611 0003347 126.0418  33.6676 14.61026713396813
SL-16 R/B               
1 26070U 00006B   26080.38734514 -.00000017  00000+0  15848-4 0  9990
2 26070  71.0006  73.2385 0016149 171.8174 188.3216 14.15823632350214
TITAN 4B R/B            
1 26474U 00047B   26080.55626016  .00004950  00000+0  30936-3 0  9992
2 26474  67.9918   7.1400 0039313  21.4115 338.8667 15.09671421394700
ENVISAT                 
1 27386U 02009A   26080.51207656  .00000122  00000+0  53321-4 0  9997
2 27386  98.3748  33.8292 0001276  81.8145  32.3594 14.39040994260879
IDEFIX & ARIANE 42P R/B 
1 27422U 02021B   26080.59198290  .00000262  00000+0  11615-3 0  9997
2 27422  98.5883  19.0569 0012266 147.5610 212.6330 14.31033848245723
